{"spkid": "20385252", "covariance": {"epoch": "2454938.5", "data": [["8.557703454820608E-15", "-9.143934769209515E-15", "1.414668937492885E-12", "4.265470844788971E-13", "1.608736749615565E-12", "6.745913578656508E-13"], ["-9.143934769209515E-15", "9.774757083169373E-15", "-1.484092431648568E-12", "-4.542431921568402E-13", "-1.70727599321479E-12", "-7.320771380679648E-13"], ["1.414668937492885E-12", "-1.484092431648568E-12", "7.601921722191748E-10", "1.401225119532782E-10", "7.85379791530269E-10", "1.836270881243377E-10"], ["4.265470844788971E-13", "-4.542431921568402E-13", "1.401225119532782E-10", "3.220710086698184E-11", "1.594960383034166E-10", "3.252328450390825E-11"], ["1.608736749615565E-12", "-1.70727599321479E-12", "7.85379791530269E-10", "1.594960383034166E-10", "8.951463801672197E-10", "2.998829397109163E-10"], ["6.745913578656508E-13", "-7.320771380679648E-13", "1.836270881243377E-10", "3.252328450390825E-11", "2.998829397109163E-10", "2.078284568136607E-9"]], "elements": [{"label": "e", "sigma": 9.25078561789246e-08, "name": "e", "units": null, "value": ".1837409858997443", "title": "eccentricity"}, {"units": "au", "title": "perihelion distance", "value": ".8595523410259716", "name": "q", "sigma": 9.88673711755773e-08, "label": "q"}, {"label": "tp", "value": "2454821.149369257839", "title": "time of perihelion passage", "units": "TDB", "sigma": 2.75715826934033e-05, "name": "tp"}, {"title": "longitude of the ascending node", "value": "155.4965153574079", "units": "deg", "sigma": 5.67513003084351e-06, "name": "om", "label": "node"}, {"label": "peri", "sigma": 2.99189969779607e-05, "name": "w", "units": "deg", "title": "argument of perihelion", "value": "101.9528436247024"}, {"label": "i", "title": "inclination", "value": "50.06310310841373", "units": "deg", "sigma": 4.55882064588706e-05, "name": "i"}], "labels": ["e", "q", "tp", "node", "peri", "i"]}, "elements": [{"sigma": "9.2385E-8", "name": "e", "units": null, "title": "eccentricity", "value": ".1836714093843786", "label": "e"}, {"units": "au", "title": "semi-major axis", "value": "1.052991987868415", "name": "a", "sigma": "2.773E-9", "label": "a"}, {"label": "q", "title": "perihelion distance", "value": ".8595874653861647", "units": "au", "sigma": "9.8529E-8", "name": "q"}, {"units": "deg", "value": "50.06409100361166", "title": "inclination; angle with respect to x-y ecliptic plane", "sigma": "4.5585E-5", "name": "i", "label": "i"}, {"label": "node", "value": "155.4611856927426", "title": "longitude of the ascending node", "units": "deg", "name": "om", "sigma": "5.6799E-6"}, {"sigma": "2.9904E-5", "name": "w", "units": "deg", "title": "argument of perihelion", "value": "101.9198728114318", "label": "peri"}, {"label": "M", "sigma": "3.6795E-5", "name": "ma", "title": "mean anomaly", "value": "58.92959871975074", "units": "deg"}, {"sigma": "4.0147E-5", "name": "tp", "title": "time of perihelion passage", "value": "2461135.894869226573", "units": "TDB", "label": "tp"}, {"label": "period", "sigma": "1.559E-6", "name": "per", "title": "sidereal orbital period", "value": "394.6717368472216", "units": "d"}, {"label": "n", "sigma": "3.6031E-9", "name": "n", "units": "deg/d", "title": "mean motion", "value": ".9121504440014079"}, {"label": "Q", "sigma": "3.2823E-9", "name": "ad", "value": "1.246396510350665", "title": "aphelion distance", "units": "au"}], "epoch": "2461200.5"}